{
  "type": "FeatureCollection",
  "features": [
    {
      "type": "Feature",
      "properties": {
        "norad_id": 66543,
        "name": "STARLINK-35315",
        "group": "last-30-days",
        "lat": -4.528537253272948,
        "lon": -64.61673454435626,
        "alt_km": 344.69524728554643,
        "timestamp": "2025-12-03T04:52:28.421153+00:00",
        "meta_object_name": "STARLINK-35315",
        "meta_object_id": "2025-265AD",
        "meta_epoch": "2025-12-02T20:00:03.000384",
        "meta_mean_motion": 15.7497593,
        "meta_eccentricity": 0.0001362,
        "meta_inclination": 43,
        "meta_ra_of_asc_node": 112.7511,
        "meta_arg_of_pericenter": 270.9482,
        "meta_mean_anomaly": 336.6114,
        "meta_ephemeris_type": 0,
        "meta_classification_type": "U",
        "meta_norad_cat_id": 66543,
        "meta_element_set_no": 999,
        "meta_rev_at_epoch": 329,
        "meta_bstar": 0.00089621,
        "meta_mean_motion_dot": 0.00139094,
        "meta_mean_motion_ddot": 0,
        "tle_line1": "1 66543U 25265AD  25336.83336806  .00139094  00000+0  89621-3 0  9994",
        "tle_line2": "2 66543  43.0000 112.7511 0001362 270.9482 336.6114 15.74975930  3293"
      },
      "geometry": {
        "type": "Point",
        "coordinates": [
          -64.61673454435626,
          -4.528537253272948
        ]
      }
    },
    {
      "type": "Feature",
      "properties": {
        "norad_id": 66544,
        "name": "STARLINK-35728",
        "group": "last-30-days",
        "lat": -5.824140936528478,
        "lon": -63.21226609705246,
        "alt_km": 344.8082341567979,
        "timestamp": "2025-12-03T04:52:28.421163+00:00",
        "meta_object_name": "STARLINK-35728",
        "meta_object_id": "2025-265AE",
        "meta_epoch": "2025-12-02T20:00:03.000384",
        "meta_mean_motion": 15.74965663,
        "meta_eccentricity": 0.0001428,
        "meta_inclination": 43,
        "meta_ra_of_asc_node": 112.747,
        "meta_arg_of_pericenter": 271.6858,
        "meta_mean_anomaly": 337.7866,
        "meta_ephemeris_type": 0,
        "meta_classification_type": "U",
        "meta_norad_cat_id": 66544,
        "meta_element_set_no": 999,
        "meta_rev_at_epoch": 340,
        "meta_bstar": 0.0010462,
        "meta_mean_motion_dot": 0.00162843,
        "meta_mean_motion_ddot": 0,
        "tle_line1": "1 66544U 25265AE  25336.83336806  .00162843  00000+0  10462-2 0  9999",
        "tle_line2": "2 66544  43.0000 112.7470 0001428 271.6858 337.7866 15.74965663  3407"
      },
      "geometry": {
        "type": "Point",
        "coordinates": [
          -63.21226609705246,
          -5.824140936528478
        ]
      }
    },
    {
      "type": "Feature",
      "properties": {
        "norad_id": 66545,
        "name": "SHIJIAN-30A",
        "group": "last-30-days",
        "lat": 32.89423864502728,
        "lon": 48.152549779866035,
        "alt_km": 514.4131187081539,
        "timestamp": "2025-12-03T04:52:28.421173+00:00",
        "meta_object_name": "SHIJIAN-30A",
        "meta_object_id": "2025-266A",
        "meta_epoch": "2025-12-02T16:01:12.258336",
        "meta_mean_motion": 15.15312731,
        "meta_eccentricity": 0.0012752,
        "meta_inclination": 51.7995,
        "meta_ra_of_asc_node": 20.0423,
        "meta_arg_of_pericenter": 320.4736,
        "meta_mean_anomaly": 39.5309,
        "meta_ephemeris_type": 0,
        "meta_classification_type": "U",
        "meta_norad_cat_id": 66545,
        "meta_element_set_no": 999,
        "meta_rev_at_epoch": 205,
        "meta_bstar": 0.00079898,
        "meta_mean_motion_dot": 0.00014991,
        "meta_mean_motion_ddot": 0,
        "tle_line1": "1 66545U 25266A   25336.66750299  .00014991  00000+0  79898-3 0  9997",
        "tle_line2": "2 66545  51.7995  20.0423 0012752 320.4736  39.5309 15.15312731  2052"
      },
      "geometry": {
        "type": "Point",
        "coordinates": [
          48.152549779866035,
          32.89423864502728
        ]
      }
    },
    {
      "type": "Feature",
      "properties": {
        "norad_id": 66546,
        "name": "SHIJIAN-30B",
        "group": "last-30-days",
        "lat": 29.112620109957106,
        "lon": 43.55460662261347,
        "alt_km": 514.0497536287967,
        "timestamp": "2025-12-03T04:52:28.421183+00:00",
        "meta_object_name": "SHIJIAN-30B",
        "meta_object_id": "2025-266B",
        "meta_epoch": "2025-12-02T16:02:40.382016",
        "meta_mean_motion": 15.1537133,
        "meta_eccentricity": 0.0010433,
        "meta_inclination": 51.7978,
        "meta_ra_of_asc_node": 20.0472,
        "meta_arg_of_pericenter": 323.4151,
        "meta_mean_anomaly": 36.6112,
        "meta_ephemeris_type": 0,
        "meta_classification_type": "U",
        "meta_norad_cat_id": 66546,
        "meta_element_set_no": 999,
        "meta_rev_at_epoch": 205,
        "meta_bstar": 0.00092142,
        "meta_mean_motion_dot": 0.0001736,
        "meta_mean_motion_ddot": 0,
        "tle_line1": "1 66546U 25266B   25336.66852294  .00017360  00000+0  92142-3 0  9996",
        "tle_line2": "2 66546  51.7978  20.0472 0010433 323.4151  36.6112 15.15371330  2056"
      },
      "geometry": {
        "type": "Point",
        "coordinates": [
          43.55460662261347,
          29.112620109957106
        ]
      }
    },
    {
      "type": "Feature",
      "properties": {
        "norad_id": 66547,
        "name": "SHIJIAN-30C",
        "group": "last-30-days",
        "lat": 26.14037847424912,
        "lon": 40.28720889043842,
        "alt_km": 514.7139140677891,
        "timestamp": "2025-12-03T04:52:28.421192+00:00",
        "meta_object_name": "SHIJIAN-30C",
        "meta_object_id": "2025-266C",
        "meta_epoch": "2025-12-02T14:28:49.291392",
        "meta_mean_motion": 15.15409301,
        "meta_eccentricity": 0.00113271,
        "meta_inclination": 51.7989,
        "meta_ra_of_asc_node": 20.3617,
        "meta_arg_of_pericenter": 315.3945,
        "meta_mean_anomaly": 44.6119,
        "meta_ephemeris_type": 0,
        "meta_classification_type": "U",
        "meta_norad_cat_id": 66547,
        "meta_element_set_no": 999,
        "meta_rev_at_epoch": 204,
        "meta_bstar": 0.00080328886,
        "meta_mean_motion_dot": 0.00015109,
        "meta_mean_motion_ddot": 0,
        "tle_line1": "1 66547U 25266C   25336.60334828  .00015109  00000+0  80329-3 0  9992",
        "tle_line2": "2 66547  51.7989  20.3617 0011327 315.3945  44.6119 15.15409301  2042"
      },
      "geometry": {
        "type": "Point",
        "coordinates": [
          40.28720889043842,
          26.14037847424912
        ]
      }
    },
    {
      "type": "Feature",
      "properties": {
        "norad_id": 66548,
        "name": "CZ-2C R/B",
        "group": "last-30-days",
        "lat": 29.521560379944184,
        "lon": 42.92551908922402,
        "alt_km": 484.09302916442357,
        "timestamp": "2025-12-03T04:52:28.421203+00:00",
        "meta_object_name": "CZ-2C R/B",
        "meta_object_id": "2025-266D",
        "meta_epoch": "2025-12-02T16:09:44.421984",
        "meta_mean_motion": 15.29827704,
        "meta_eccentricity": 0.0084826,
        "meta_inclination": 52.055,
        "meta_ra_of_asc_node": 19.2264,
        "meta_arg_of_pericenter": 138.8179,
        "meta_mean_anomaly": 221.9248,
        "meta_ephemeris_type": 0,
        "meta_classification_type": "U",
        "meta_norad_cat_id": 66548,
        "meta_element_set_no": 999,
        "meta_rev_at_epoch": 207,
        "meta_bstar": 0.00048009,
        "meta_mean_motion_dot": 0.0001533,
        "meta_mean_motion_ddot": 0,
        "tle_line1": "1 66548U 25266D   25336.67343081  .00015330  00000+0  48009-3 0  9996",
        "tle_line2": "2 66548  52.0550  19.2264 0084826 138.8179 221.9248 15.29827704  2079"
      },
      "geometry": {
        "type": "Point",
        "coordinates": [
          42.92551908922402,
          29.521560379944184
        ]
      }
    },
    {
      "type": "Feature",
      "properties": {
        "norad_id": 66549,
        "name": "SHIJIAN-28",
        "group": "last-30-days",
        "lat": -11.866134905224119,
        "lon": -140.0841226870532,
        "alt_km": 12609.888995704823,
        "timestamp": "2025-12-03T04:52:28.421218+00:00",
        "meta_object_name": "SHIJIAN-28",
        "meta_object_id": "2025-277A",
        "meta_epoch": "2025-11-30T18:06:43.124256",
        "meta_mean_motion": 2.28019775,
        "meta_eccentricity": 0.7300519,
        "meta_inclination": 14.4344,
        "meta_ra_of_asc_node": 275.4056,
        "meta_arg_of_pericenter": 179.5026,
        "meta_mean_anomaly": 182.358,
        "meta_ephemeris_type": 0,
        "meta_classification_type": "U",
        "meta_norad_cat_id": 66549,
        "meta_element_set_no": 999,
        "meta_rev_at_epoch": 4,
        "meta_bstar": 0.00062085,
        "meta_mean_motion_dot": 6.315e-05,
        "meta_mean_motion_ddot": 0,
        "tle_line1": "1 66549U 25277A   25334.75466579  .00006315  00000+0  62085-3 0  9997",
        "tle_line2": "2 66549  14.4344 275.4056 7300519 179.5026 182.3580  2.28019775    48"
      },
      "geometry": {
        "type": "Point",
        "coordinates": [
          -140.0841226870532,
          -11.866134905224119
        ]
      }
    }
  ]
}